[{"iso_code":"ar-SA","native_name":"العربية (المملكة العربية السعودية)","english_name":"Arabic (Saudi Arabia)","is_rtl":true},{"iso_code":"bg-BG","native_name":"български (България)","english_name":"Bulgarian (Bulgaria)","is_rtl":false},{"iso_code":"ca-ES","native_name":"Català (Català)","english_name":"Catalan (Catalan)","is_rtl":false},{"iso_code":"zh-TW","native_name":"中文(台灣)","english_name":"Chinese (Traditional, Taiwan)","is_rtl":false},{"iso_code":"cs-CZ","native_name":"čeština (Česká republika)","english_name":"Czech (Czech Republic)","is_rtl":false},{"iso_code":"da-DK","native_name":"dansk (Danmark)","english_name":"Danish (Denmark)","is_rtl":false},{"iso_code":"de-DE","native_name":"Deutsch (Deutschland)","english_name":"German (Germany)","is_rtl":false},{"iso_code":"el-GR","native_name":"Ελληνικά (Ελλάδα)","english_name":"Greek (Greece)","is_rtl":false},{"iso_code":"en-US","native_name":"English (United States)","english_name":"English (United States)","is_rtl":false},{"iso_code":"fi-FI","native_name":"suomi (Suomi)","english_name":"Finnish (Finland)","is_rtl":false},{"iso_code":"fr-FR","native_name":"français (France)","english_name":"French (France)","is_rtl":false},{"iso_code":"he-IL","native_name":"עברית (ישראל)","english_name":"Hebrew (Israel)","is_rtl":true},{"iso_code":"hu-HU","native_name":"magyar (Magyarország)","english_name":"Hungarian (Hungary)","is_rtl":false},{"iso_code":"is-IS","native_name":"íslenska (Ísland)","english_name":"Icelandic (Iceland)","is_rtl":false},{"iso_code":"it-IT","native_name":"italiano (Italia)","english_name":"Italian (Italy)","is_rtl":false},{"iso_code":"ja-JP","native_name":"日本語 (日本)","english_name":"Japanese (Japan)","is_rtl":false},{"iso_code":"ko-KR","native_name":"한국어(대한민국)","english_name":"Korean (Korea)","is_rtl":false},{"iso_code":"nl-NL","native_name":"Nederlands (Nederland)","english_name":"Dutch (Netherlands)","is_rtl":false},{"iso_code":"nb-NO","native_name":"norsk, bokmål (Norge)","english_name":"Norwegian, Bokmål (Norway)","is_rtl":false},{"iso_code":"pl-PL","native_name":"polski (Polska)","english_name":"Polish (Poland)","is_rtl":false},{"iso_code":"pt-BR","native_name":"Português (Brasil)","english_name":"Portuguese (Brazil)","is_rtl":false},{"iso_code":"rm-CH","native_name":"Rumantsch (Svizra)","english_name":"Romansh (Switzerland)","is_rtl":false},{"iso_code":"ro-RO","native_name":"română (România)","english_name":"Romanian (Romania)","is_rtl":false},{"iso_code":"ru-RU","native_name":"русский (Россия)","english_name":"Russian (Russia)","is_rtl":false},{"iso_code":"hr-HR","native_name":"hrvatski (Hrvatska)","english_name":"Croatian (Croatia)","is_rtl":false},{"iso_code":"sk-SK","native_name":"slovenčina (Slovenská republika)","english_name":"Slovak (Slovakia)","is_rtl":false},{"iso_code":"sq-AL","native_name":"Shqip (Shqipëria)","english_name":"Albanian (Albania)","is_rtl":false},{"iso_code":"sv-SE","native_name":"svenska (Sverige)","english_name":"Swedish (Sweden)","is_rtl":false},{"iso_code":"th-TH","native_name":"ไทย (ไทย)","english_name":"Thai (Thailand)","is_rtl":false},{"iso_code":"tr-TR","native_name":"Türkçe (Türkiye)","english_name":"Turkish (Turkey)","is_rtl":false},{"iso_code":"ur-PK","native_name":"اُردو (پاکستان)","english_name":"Urdu (Pakistan)","is_rtl":true},{"iso_code":"id-ID","native_name":"Bahasa Indonesia (Indonesia)","english_name":"Indonesian (Indonesia)","is_rtl":false},{"iso_code":"uk-UA","native_name":"українська (Україна)","english_name":"Ukrainian (Ukraine)","is_rtl":false},{"iso_code":"be-BY","native_name":"Беларуская (Беларусь)","english_name":"Belarusian (Belarus)","is_rtl":false},{"iso_code":"sl-SI","native_name":"slovenski (Slovenija)","english_name":"Slovenian (Slovenia)","is_rtl":false},{"iso_code":"et-EE","native_name":"eesti (Eesti)","english_name":"Estonian (Estonia)","is_rtl":false},{"iso_code":"lv-LV","native_name":"latviešu (Latvija)","english_name":"Latvian (Latvia)","is_rtl":false},{"iso_code":"lt-LT","native_name":"lietuvių (Lietuva)","english_name":"Lithuanian (Lithuania)","is_rtl":false},{"iso_code":"tg-Cyrl-TJ","native_name":"Тоҷикӣ (Тоҷикистон)","english_name":"Tajik (Cyrillic, Tajikistan)","is_rtl":false},{"iso_code":"fa-IR","native_name":"فارسى (ایران)","english_name":"Persian","is_rtl":true},{"iso_code":"vi-VN","native_name":"Tiếng Việt (Việt Nam)","english_name":"Vietnamese (Vietnam)","is_rtl":false},{"iso_code":"hy-AM","native_name":"Հայերեն (Հայաստան)","english_name":"Armenian (Armenia)","is_rtl":false},{"iso_code":"az-Latn-AZ","native_name":"Azərbaycan dili (Azərbaycan)","english_name":"Azerbaijani (Latin, Azerbaijan)","is_rtl":false},{"iso_code":"eu-ES","native_name":"euskara (euskara)","english_name":"Basque (Basque)","is_rtl":false},{"iso_code":"hsb-DE","native_name":"hornjoserbšćina (Němska)","english_name":"Upper Sorbian (Germany)","is_rtl":false},{"iso_code":"mk-MK","native_name":"македонски јазик (Македонија)","english_name":"Macedonian (Former Yugoslav Republic of Macedonia)","is_rtl":false},{"iso_code":"tn-ZA","native_name":"Setswana (Aforika Borwa)","english_name":"Setswana (South Africa)","is_rtl":false},{"iso_code":"xh-ZA","native_name":"isiXhosa (uMzantsi Afrika)","english_name":"isiXhosa (South Africa)","is_rtl":false},{"iso_code":"zu-ZA","native_name":"isiZulu (iNingizimu Afrika)","english_name":"isiZulu (South Africa)","is_rtl":false},{"iso_code":"af-ZA","native_name":"Afrikaans (Suid-Afrika)","english_name":"Afrikaans (South Africa)","is_rtl":false},{"iso_code":"ka-GE","native_name":"ქართული (საქართველო)","english_name":"Georgian (Georgia)","is_rtl":false},{"iso_code":"fo-FO","native_name":"føroyskt (Føroyar)","english_name":"Faroese (Faroe Islands)","is_rtl":false},{"iso_code":"hi-IN","native_name":"हिंदी (भारत)","english_name":"Hindi (India)","is_rtl":false},{"iso_code":"mt-MT","native_name":"Malti (Malta)","english_name":"Maltese (Malta)","is_rtl":false},{"iso_code":"se-NO","native_name":"davvisámegiella (Norga)","english_name":"Sami, Northern (Norway)","is_rtl":false},{"iso_code":"ms-MY","native_name":"Bahasa Melayu (Malaysia)","english_name":"Malay (Malaysia)","is_rtl":false},{"iso_code":"kk-KZ","native_name":"Қазақ (Қазақстан)","english_name":"Kazakh (Kazakhstan)","is_rtl":false},{"iso_code":"ky-KG","native_name":"Кыргыз (Кыргызстан)","english_name":"Kyrgyz (Kyrgyzstan)","is_rtl":false},{"iso_code":"sw-KE","native_name":"Kiswahili (Kenya)","english_name":"Kiswahili (Kenya)","is_rtl":false},{"iso_code":"tk-TM","native_name":"Türkmen dili (Türkmenistan)","english_name":"Turkmen (Turkmenistan)","is_rtl":false},{"iso_code":"uz-Latn-UZ","native_name":"O'zbekcha (O'zbekiston Respublikasi)","english_name":"Uzbek (Latin, Uzbekistan)","is_rtl":false},{"iso_code":"tt-RU","native_name":"Татар (Россия)","english_name":"Tatar (Russia)","is_rtl":false},{"iso_code":"bn-IN","native_name":"বাংলা (ভারত)","english_name":"Bangla (India)","is_rtl":false},{"iso_code":"pa-IN","native_name":"ਪੰਜਾਬੀ (ਭਾਰਤ)","english_name":"Punjabi (India)","is_rtl":false},{"iso_code":"gu-IN","native_name":"ગુજરાતી (ભારત)","english_name":"Gujarati (India)","is_rtl":false},{"iso_code":"or-IN","native_name":"ଓଡ଼ିଆ (ଭାରତ)","english_name":"Odia (India)","is_rtl":false},{"iso_code":"ta-IN","native_name":"தமிழ் (இந்தியா)","english_name":"Tamil (India)","is_rtl":false},{"iso_code":"te-IN","native_name":"తెలుగు (భారత దేశం)","english_name":"Telugu (India)","is_rtl":false},{"iso_code":"kn-IN","native_name":"ಕನ್ನಡ (ಭಾರತ)","english_name":"Kannada (India)","is_rtl":false},{"iso_code":"ml-IN","native_name":"മലയാളം (ഭാരതം)","english_name":"Malayalam (India)","is_rtl":false},{"iso_code":"as-IN","native_name":"অসমীয়া (ভাৰত)","english_name":"Assamese (India)","is_rtl":false},{"iso_code":"mr-IN","native_name":"मराठी (भारत)","english_name":"Marathi (India)","is_rtl":false},{"iso_code":"sa-IN","native_name":"संस्कृत (भारतम्)","english_name":"Sanskrit (India)","is_rtl":false},{"iso_code":"mn-MN","native_name":"Монгол хэл (Монгол улс)","english_name":"Mongolian (Cyrillic, Mongolia)","is_rtl":false},{"iso_code":"bo-CN","native_name":"བོད་ཡིག (ཀྲུང་ཧྭ་མི་དམངས་སྤྱི་མཐུན་རྒྱལ་ཁབ།)","english_name":"Tibetan (China)","is_rtl":false},{"iso_code":"cy-GB","native_name":"Cymraeg (Y Deyrnas Unedig)","english_name":"Welsh (United Kingdom)","is_rtl":false},{"iso_code":"km-KH","native_name":"ភាសាខ្មែរ (កម្ពុជា)","english_name":"Khmer (Cambodia)","is_rtl":false},{"iso_code":"lo-LA","native_name":"ພາສາລາວ (ສປປ ລາວ)","english_name":"Lao (Lao PDR)","is_rtl":false},{"iso_code":"gl-ES","native_name":"galego (galego)","english_name":"Galician (Galician)","is_rtl":false},{"iso_code":"kok-IN","native_name":"कोंकणी (भारत)","english_name":"Konkani (India)","is_rtl":false},{"iso_code":"syr-SY","native_name":"ܣܘܪܝܝܐ (ܣܘܪܝܐ)","english_name":"Syriac (Syria)","is_rtl":true},{"iso_code":"si-LK","native_name":"සිංහල (ශ්‍රී ලංකා)","english_name":"Sinhala (Sri Lanka)","is_rtl":false},{"iso_code":"chr-Cher-US","native_name":"ᏣᎳᎩ (ᏣᎳᎩ)","english_name":"Cherokee (Cherokee)","is_rtl":false},{"iso_code":"iu-Cans-CA","native_name":"ᐃᓄᒃᑎᑐᑦ (ᑲᓇᑕᒥ)","english_name":"Inuktitut (Syllabics, Canada)","is_rtl":false},{"iso_code":"am-ET","native_name":"አማርኛ (ኢትዮጵያ)","english_name":"Amharic (Ethiopia)","is_rtl":false},{"iso_code":"ne-NP","native_name":"नेपाली (नेपाल)","english_name":"Nepali (Nepal)","is_rtl":false},{"iso_code":"fy-NL","native_name":"Frysk (Nederlân)","english_name":"Frisian (Netherlands)","is_rtl":false},{"iso_code":"ps-AF","native_name":"پښتو (افغانستان)","english_name":"Pashto (Afghanistan)","is_rtl":true},{"iso_code":"fil-PH","native_name":"Filipino (Pilipinas)","english_name":"Filipino (Philippines)","is_rtl":false},{"iso_code":"dv-MV","native_name":"ދިވެހިބަސް (ދިވެހި ރާއްޖެ)","english_name":"Divehi (Maldives)","is_rtl":true},{"iso_code":"ha-Latn-NG","native_name":"Hausa (Nijeriya)","english_name":"Hausa (Latin, Nigeria)","is_rtl":false},{"iso_code":"yo-NG","native_name":"Yoruba (Nigeria)","english_name":"Yoruba (Nigeria)","is_rtl":false},{"iso_code":"quz-BO","native_name":"runasimi (Qullasuyu)","english_name":"Quechua (Bolivia)","is_rtl":false},{"iso_code":"nso-ZA","native_name":"Sesotho sa Leboa (Afrika Borwa)","english_name":"Sesotho sa Leboa (South Africa)","is_rtl":false},{"iso_code":"ba-RU","native_name":"Башҡорт (Рәсәй)","english_name":"Bashkir (Russia)","is_rtl":false},{"iso_code":"lb-LU","native_name":"Lëtzebuergesch (Lëtzebuerg)","english_name":"Luxembourgish (Luxembourg)","is_rtl":false},{"iso_code":"kl-GL","native_name":"kalaallisut (Kalaallit Nunaat)","english_name":"Greenlandic (Greenland)","is_rtl":false},{"iso_code":"ig-NG","native_name":"Igbo (Nigeria)","english_name":"Igbo (Nigeria)","is_rtl":false},{"iso_code":"ti-ET","native_name":"ትግርኛ (ኢትዮጵያ)","english_name":"Tigrinya (Ethiopia)","is_rtl":false},{"iso_code":"haw-US","native_name":"Hawaiʻi (ʻAmelika)","english_name":"Hawaiian (United States)","is_rtl":false},{"iso_code":"ii-CN","native_name":"ꆈꌠꁱꂷ (ꍏꉸꏓꂱꇭꉼꇩ)","english_name":"Yi (China)","is_rtl":false},{"iso_code":"arn-CL","native_name":"Mapudungun (Chile)","english_name":"Mapudungun (Chile)","is_rtl":false},{"iso_code":"moh-CA","native_name":"Kanien'kéha","english_name":"Mohawk (Mohawk)","is_rtl":false},{"iso_code":"br-FR","native_name":"brezhoneg (Frañs)","english_name":"Breton (France)","is_rtl":false},{"iso_code":"ug-CN","native_name":"ئۇيغۇرچە (جۇڭخۇا خەلق جۇمھۇرىيىتى)","english_name":"Uyghur (China)","is_rtl":true},{"iso_code":"mi-NZ","native_name":"Reo Māori (Aotearoa)","english_name":"Maori (New Zealand)","is_rtl":false},{"iso_code":"oc-FR","native_name":"Occitan (França)","english_name":"Occitan (France)","is_rtl":false},{"iso_code":"co-FR","native_name":"Corsu (Francia)","english_name":"Corsican (France)","is_rtl":false},{"iso_code":"gsw-FR","native_name":"Elsässisch (Frànkrisch)","english_name":"Alsatian (France)","is_rtl":false},{"iso_code":"sah-RU","native_name":"Саха (Россия)","english_name":"Sakha (Russia)","is_rtl":false},{"iso_code":"qut-GT","native_name":"K'iche' (Guatemala)","english_name":"K'iche' (Guatemala)","is_rtl":false},{"iso_code":"rw-RW","native_name":"Kinyarwanda (Rwanda)","english_name":"Kinyarwanda (Rwanda)","is_rtl":false},{"iso_code":"wo-SN","native_name":"Wolof (Senegaal)","english_name":"Wolof (Senegal)","is_rtl":false},{"iso_code":"prs-AF","native_name":"درى (افغانستان)","english_name":"Dari (Afghanistan)","is_rtl":true},{"iso_code":"gd-GB","native_name":"Gàidhlig (An Rìoghachd Aonaichte)","english_name":"Scottish Gaelic (United Kingdom)","is_rtl":false},{"iso_code":"ku-Arab-IQ","native_name":"کوردیی ناوەڕاست (کوردستان)","english_name":"Central Kurdish (Iraq)","is_rtl":true},{"iso_code":"ar-IQ","native_name":"العربية (العراق)","english_name":"Arabic (Iraq)","is_rtl":true},{"iso_code":"ca-ES-valencia","native_name":"Valencià (Espanya)","english_name":"Valencian (Spain)","is_rtl":false},{"iso_code":"zh-CN","native_name":"中文(中华人民共和国)","english_name":"Chinese (Simplified, China)","is_rtl":false},{"iso_code":"de-CH","native_name":"Deutsch (Schweiz)","english_name":"German (Switzerland)","is_rtl":false},{"iso_code":"en-GB","native_name":"English (United Kingdom)","english_name":"English (United Kingdom)","is_rtl":false},{"iso_code":"es-MX","native_name":"Español (México)","english_name":"Spanish (Mexico)","is_rtl":false},{"iso_code":"fr-BE","native_name":"français (Belgique)","english_name":"French (Belgium)","is_rtl":false},{"iso_code":"it-CH","native_name":"italiano (Svizzera)","english_name":"Italian (Switzerland)","is_rtl":false},{"iso_code":"nl-BE","native_name":"Nederlands (België)","english_name":"Dutch (Belgium)","is_rtl":false},{"iso_code":"nn-NO","native_name":"norsk, nynorsk (Noreg)","english_name":"Norwegian, Nynorsk (Norway)","is_rtl":false},{"iso_code":"pt-PT","native_name":"português (Portugal)","english_name":"Portuguese (Portugal)","is_rtl":false},{"iso_code":"sr-Latn-CS","native_name":"srpski (Srbija i Crna Gora (Bivša))","english_name":"Serbian (Latin, Serbia and Montenegro (Former))","is_rtl":false},{"iso_code":"sv-FI","native_name":"svenska (Finland)","english_name":"Swedish (Finland)","is_rtl":false},{"iso_code":"az-Cyrl-AZ","native_name":"Азәрбајҹан (Азәрбајҹан)","english_name":"Azerbaijani (Cyrillic, Azerbaijan)","is_rtl":false},{"iso_code":"dsb-DE","native_name":"dolnoserbšćina (Nimska)","english_name":"Lower Sorbian (Germany)","is_rtl":false},{"iso_code":"tn-BW","native_name":"Setswana (Botswana)","english_name":"Setswana (Botswana)","is_rtl":false},{"iso_code":"se-SE","native_name":"davvisámegiella (Ruoŧŧa)","english_name":"Sami, Northern (Sweden)","is_rtl":false},{"iso_code":"ga-IE","native_name":"Gaeilge (Éire)","english_name":"Irish (Ireland)","is_rtl":false},{"iso_code":"ms-BN","native_name":"Bahasa Melayu (Brunei Darussalam)","english_name":"Malay (Brunei Darussalam)","is_rtl":false},{"iso_code":"uz-Cyrl-UZ","native_name":"Ўзбекча (Ўзбекистон Республикаси)","english_name":"Uzbek (Cyrillic, Uzbekistan)","is_rtl":false},{"iso_code":"bn-BD","native_name":"বাংলা (বাংলাদেশ)","english_name":"Bangla (Bangladesh)","is_rtl":false},{"iso_code":"pa-Arab-PK","native_name":"پنجابی (پاکستان)","english_name":"Punjabi (Pakistan)","is_rtl":true},{"iso_code":"ta-LK","native_name":"தமிழ் (இலங்கை)","english_name":"Tamil (Sri Lanka)","is_rtl":false},{"iso_code":"mn-Mong-CN","native_name":"ᠮᠤᠨᠭᠭᠤᠯ ᠬᠡᠯᠡ (ᠪᠦᠭᠦᠳᠡ ᠨᠠᠢᠷᠠᠮᠳᠠᠬᠤ ᠳᠤᠮᠳᠠᠳᠤ ᠠᠷᠠᠳ ᠣᠯᠣᠰ)","english_name":"Mongolian (Traditional Mongolian, China)","is_rtl":false},{"iso_code":"sd-Arab-PK","native_name":"سنڌي (پاکستان)","english_name":"Sindhi (Pakistan)","is_rtl":true},{"iso_code":"iu-Latn-CA","native_name":"Inuktitut (Kanatami)","english_name":"Inuktitut (Latin, Canada)","is_rtl":false},{"iso_code":"tzm-Latn-DZ","native_name":"Tamazight (Djazaïr)","english_name":"Central Atlas Tamazight (Latin, Algeria)","is_rtl":false},{"iso_code":"ff-Latn-SN","native_name":"Fulah (Sénégal)","english_name":"Fulah (Latin, Senegal)","is_rtl":false},{"iso_code":"quz-EC","native_name":"runa shimi (Ecuador Suyu)","english_name":"Quichua (Ecuador)","is_rtl":false},{"iso_code":"ti-ER","native_name":"ትግርኛ (ኤርትራ)","english_name":"Tigrinya (Eritrea)","is_rtl":false},{"iso_code":"ar-EG","native_name":"العربية (مصر)","english_name":"Arabic (Egypt)","is_rtl":true},{"iso_code":"zh-HK","native_name":"中文(香港特別行政區)","english_name":"Chinese (Traditional, Hong Kong SAR)","is_rtl":false},{"iso_code":"de-AT","native_name":"Deutsch (Österreich)","english_name":"German (Austria)","is_rtl":false},{"iso_code":"en-AU","native_name":"English (Australia)","english_name":"English (Australia)","is_rtl":false},{"iso_code":"es-ES","native_name":"Español (España, alfabetización internacional)","english_name":"Spanish (Spain, International Sort)","is_rtl":false},{"iso_code":"fr-CA","native_name":"français (Canada)","english_name":"French (Canada)","is_rtl":false},{"iso_code":"sr-Cyrl-CS","native_name":"српски (Србија и Црна Гора (Бивша))","english_name":"Serbian (Cyrillic, Serbia and Montenegro (Former))","is_rtl":false},{"iso_code":"se-FI","native_name":"davvisámegiella (Suopma)","english_name":"Sami, Northern (Finland)","is_rtl":false},{"iso_code":"quz-PE","native_name":"runasimi (Peru)","english_name":"Quechua (Peru)","is_rtl":false},{"iso_code":"ar-LY","native_name":"العربية (ليبيا)","english_name":"Arabic (Libya)","is_rtl":true},{"iso_code":"zh-SG","native_name":"中文(新加坡)","english_name":"Chinese (Simplified, Singapore)","is_rtl":false},{"iso_code":"de-LU","native_name":"Deutsch (Luxemburg)","english_name":"German (Luxembourg)","is_rtl":false},{"iso_code":"en-CA","native_name":"English (Canada)","english_name":"English (Canada)","is_rtl":false},{"iso_code":"es-GT","native_name":"Español (Guatemala)","english_name":"Spanish (Guatemala)","is_rtl":false},{"iso_code":"fr-CH","native_name":"français (Suisse)","english_name":"French (Switzerland)","is_rtl":false},{"iso_code":"hr-BA","native_name":"hrvatski (Bosna i Hercegovina)","english_name":"Croatian (Latin, Bosnia and Herzegovina)","is_rtl":false},{"iso_code":"smj-NO","native_name":"julevusámegiella (Vuodna)","english_name":"Sami, Lule (Norway)","is_rtl":false},{"iso_code":"tzm-Tfng-MA","native_name":"ⵜⴰⵎⴰⵣⵉⵖⵜ (ⵍⵎⵖⵔⵉⴱ)","english_name":"Central Atlas Tamazight (Tifinagh, Morocco)","is_rtl":false},{"iso_code":"ar-DZ","native_name":"العربية (الجزائر)","english_name":"Arabic (Algeria)","is_rtl":true},{"iso_code":"zh-MO","native_name":"中文(澳門特別行政區)","english_name":"Chinese (Traditional, Macao SAR)","is_rtl":false},{"iso_code":"de-LI","native_name":"Deutsch (Liechtenstein)","english_name":"German (Liechtenstein)","is_rtl":false},{"iso_code":"en-NZ","native_name":"English (New Zealand)","english_name":"English (New Zealand)","is_rtl":false},{"iso_code":"es-CR","native_name":"Español (Costa Rica)","english_name":"Spanish (Costa Rica)","is_rtl":false},{"iso_code":"fr-LU","native_name":"français (Luxembourg)","english_name":"French (Luxembourg)","is_rtl":false},{"iso_code":"bs-Latn-BA","native_name":"bosanski (Bosna i Hercegovina)","english_name":"Bosnian (Latin, Bosnia and Herzegovina)","is_rtl":false},{"iso_code":"smj-SE","native_name":"julevusámegiella (Svierik)","english_name":"Sami, Lule (Sweden)","is_rtl":false},{"iso_code":"ar-MA","native_name":"العربية (المملكة المغربية)","english_name":"Arabic (Morocco)","is_rtl":true},{"iso_code":"en-IE","native_name":"English (Ireland)","english_name":"English (Ireland)","is_rtl":false},{"iso_code":"es-PA","native_name":"Español (Panamá)","english_name":"Spanish (Panama)","is_rtl":false},{"iso_code":"fr-MC","native_name":"français (Principauté de Monaco)","english_name":"French (Monaco)","is_rtl":false},{"iso_code":"sr-Latn-BA","native_name":"srpski (Bosna i Hercegovina)","english_name":"Serbian (Latin, Bosnia and Herzegovina)","is_rtl":false},{"iso_code":"sma-NO","native_name":"åarjelsaemiengïele (Nöörje)","english_name":"Sami, Southern (Norway)","is_rtl":false},{"iso_code":"ar-TN","native_name":"العربية (تونس)","english_name":"Arabic (Tunisia)","is_rtl":true},{"iso_code":"en-ZA","native_name":"English (South Africa)","english_name":"English (South Africa)","is_rtl":false},{"iso_code":"es-DO","native_name":"Español (República Dominicana)","english_name":"Spanish (Dominican Republic)","is_rtl":false},{"iso_code":"sr-Cyrl-BA","native_name":"српски (Босна и Херцеговина)","english_name":"Serbian (Cyrillic, Bosnia and Herzegovina)","is_rtl":false},{"iso_code":"sma-SE","native_name":"åarjelsaemiengïele (Sveerje)","english_name":"Sami, Southern (Sweden)","is_rtl":false},{"iso_code":"ar-OM","native_name":"العربية (عمان)","english_name":"Arabic (Oman)","is_rtl":true},{"iso_code":"en-JM","native_name":"English (Jamaica)","english_name":"English (Jamaica)","is_rtl":false},{"iso_code":"es-VE","native_name":"Español (Republica Bolivariana de Venezuela)","english_name":"Spanish (Bolivarian Republic of Venezuela)","is_rtl":false},{"iso_code":"bs-Cyrl-BA","native_name":"босански (Босна и Херцеговина)","english_name":"Bosnian (Cyrillic, Bosnia and Herzegovina)","is_rtl":false},{"iso_code":"sms-FI","native_name":"sää´mǩiõll (Lää´ddjânnam)","english_name":"Sami, Skolt (Finland)","is_rtl":false},{"iso_code":"ar-YE","native_name":"العربية (اليمن)","english_name":"Arabic (Yemen)","is_rtl":true},{"iso_code":"en-029","native_name":"English (Caribbean)","english_name":"English (Caribbean)","is_rtl":false},{"iso_code":"es-CO","native_name":"Español (Colombia)","english_name":"Spanish (Colombia)","is_rtl":false},{"iso_code":"sr-Latn-RS","native_name":"srpski (Srbija)","english_name":"Serbian (Latin, Serbia)","is_rtl":false},{"iso_code":"smn-FI","native_name":"sämikielâ (Suomâ)","english_name":"Sami, Inari (Finland)","is_rtl":false},{"iso_code":"ar-SY","native_name":"العربية (سوريا)","english_name":"Arabic (Syria)","is_rtl":true},{"iso_code":"en-BZ","native_name":"English (Belize)","english_name":"English (Belize)","is_rtl":false},{"iso_code":"es-PE","native_name":"Español (Perú)","english_name":"Spanish (Peru)","is_rtl":false},{"iso_code":"sr-Cyrl-RS","native_name":"српски (Србија)","english_name":"Serbian (Cyrillic, Serbia)","is_rtl":false},{"iso_code":"ar-JO","native_name":"العربية (الأردن)","english_name":"Arabic (Jordan)","is_rtl":true},{"iso_code":"en-TT","native_name":"English (Trinidad and Tobago)","english_name":"English (Trinidad and Tobago)","is_rtl":false},{"iso_code":"es-AR","native_name":"Español (Argentina)","english_name":"Spanish (Argentina)","is_rtl":false},{"iso_code":"sr-Latn-ME","native_name":"srpski (Crna Gora)","english_name":"Serbian (Latin, Montenegro)","is_rtl":false},{"iso_code":"ar-LB","native_name":"العربية (لبنان)","english_name":"Arabic (Lebanon)","is_rtl":true},{"iso_code":"en-ZW","native_name":"English (Zimbabwe)","english_name":"English (Zimbabwe)","is_rtl":false},{"iso_code":"es-EC","native_name":"Español (Ecuador)","english_name":"Spanish (Ecuador)","is_rtl":false},{"iso_code":"sr-Cyrl-ME","native_name":"српски (Црна Гора)","english_name":"Serbian (Cyrillic, Montenegro)","is_rtl":false},{"iso_code":"ar-KW","native_name":"العربية (الكويت)","english_name":"Arabic (Kuwait)","is_rtl":true},{"iso_code":"en-PH","native_name":"English (Philippines)","english_name":"English (Philippines)","is_rtl":false},{"iso_code":"es-CL","native_name":"Español (Chile)","english_name":"Spanish (Chile)","is_rtl":false},{"iso_code":"ar-AE","native_name":"العربية (الإمارات العربية المتحدة)","english_name":"Arabic (U.A.E.)","is_rtl":true},{"iso_code":"es-UY","native_name":"Español (Uruguay)","english_name":"Spanish (Uruguay)","is_rtl":false},{"iso_code":"ar-BH","native_name":"العربية (البحرين)","english_name":"Arabic (Bahrain)","is_rtl":true},{"iso_code":"es-PY","native_name":"Español (Paraguay)","english_name":"Spanish (Paraguay)","is_rtl":false},{"iso_code":"ar-QA","native_name":"العربية (قطر)","english_name":"Arabic (Qatar)","is_rtl":true},{"iso_code":"en-IN","native_name":"English (India)","english_name":"English (India)","is_rtl":false},{"iso_code":"es-BO","native_name":"Español (Bolivia)","english_name":"Spanish (Bolivia)","is_rtl":false},{"iso_code":"en-MY","native_name":"English (Malaysia)","english_name":"English (Malaysia)","is_rtl":false},{"iso_code":"es-SV","native_name":"Español (El Salvador)","english_name":"Spanish (El Salvador)","is_rtl":false},{"iso_code":"en-SG","native_name":"English (Singapore)","english_name":"English (Singapore)","is_rtl":false},{"iso_code":"es-HN","native_name":"Español (Honduras)","english_name":"Spanish (Honduras)","is_rtl":false},{"iso_code":"es-NI","native_name":"Español (Nicaragua)","english_name":"Spanish (Nicaragua)","is_rtl":false},{"iso_code":"es-PR","native_name":"Español (Puerto Rico)","english_name":"Spanish (Puerto Rico)","is_rtl":false},{"iso_code":"es-US","native_name":"Español (Estados Unidos)","english_name":"Spanish (United States)","is_rtl":false}]